QIANFAN-1               
1 60379U 24140A   25199.59960602  .00000129  00000+0  18151-3 0  9999
2 60379  88.9843 314.4772 0015450 279.9558  79.9849 13.50951907 47484
QIANFAN-2               
1 60380U 24140B   25199.62845382  .00000114  00000+0  15798-3 0  9990
2 60380  88.9829 314.3341 0011060 247.0086 112.9898 13.50958315 47545
QIANFAN-3               
1 60381U 24140C   25199.56253883  .00000123  00000+0  17261-3 0  9990
2 60381  88.9821 314.4842 0011970 262.2124  97.7668 13.50956406 47440
QIANFAN-4               
1 60382U 24140D   25199.61195431  .00000133  00000+0  18732-3 0  9996
2 60382  88.9846 314.3400 0011233 250.2113 109.7827 13.50951930 47576
QIANFAN-5               
1 60383U 24140E   25199.58734319  .00000125  00000+0  17464-3 0  9999
2 60383  88.9821 314.5075 0013142 275.4105  84.5547 13.50955040 47431
QIANFAN-6               
1 60384U 24140F   25199.60778816  .00000133  00000+0  18756-3 0  9997
2 60384  88.9848 314.2125 0011246 257.2049 102.7846 13.50956433 47636
QIANFAN-7               
1 60385U 24140G   25199.61648182  .00000470  00000+0  18534-3 0  9999
2 60385  88.9851 310.9768 0016273 157.0451 203.1474 14.27479256 49404
QIANFAN-8               
1 60386U 24140H   25199.61614158  .00000126  00000+0  17694-3 0  9990
2 60386  88.9850 314.4465 0014667 260.5953  99.3540 13.50955617 47489
